pha,H,G,diameter,albedo,rot_per,BV,UB,spec_B,spec_T,e,a,q,i,om,w,ma,ad,n,per,per.y,moid,class,data_arc,condition_code
0,13.47,,,,,,,7,153,0.1237,3.201,2.805,0.5,111.01,152.76,307.06,3.6,0.1721,2090.0,5.73,1.79,10,11148.0,0
0,15.2,,,,,,,7,153,0.1334,2.255,1.954,5.84,72.93,93.98,284.76,2.56,0.2911,1240.0,3.39,0.972,8,10861.0,0
0,13.53,,,,23.238,,,7,153,0.1185,2.654,2.34,4.69,122.12,225.86,322.99,2.97,0.2279,1580.0,4.32,1.34,8,8680.0,0
0,13.5,,,,,,,7,153,0.1271,2.6,2.27,12.68,38.51,102.08,211.58,2.93,0.235,1530.0,4.19,1.32,8,24108.0,0
0,14.54,,,,,,,7,153,0.0471,2.388,2.275,7.4,89.96,64.46,108.59,2.5,0.2672,1350.0,3.69,1.3,8,8645.0,0
0,15.0,,,,4.484,,,7,153,0.0998,2.533,2.28,5.09,15.62,202.81,207.32,2.79,0.2446,1470.0,4.03,1.27,8,22284.0,0
0,14.95,,,,,,,7,153,0.1773,2.681,2.206,3.7,257.69,271.09,78.7,3.16,0.2245,1600.0,4.39,1.22,8,8650.0,0
0,14.72,,,,,,,7,153,0.0306,2.711,2.628,3.77,143.84,38.0,54.04,2.79,0.2208,1630.0,4.46,1.63,8,15615.0,0
0,15.3,,,,,,,7,153,0.1045,2.329,2.085,3.99,327.98,185.88,177.33,2.57,0.2774,1300.0,3.55,1.1,8,10198.0,0
0,14.89,,,,,,,7,153,0.1778,2.561,2.106,4.47,211.02,339.26,198.47,3.02,0.2405,1500.0,4.1,1.11,8,11124.0,0
0,13.52,,,,,,,7,153,0.1854,2.745,2.236,8.99,104.46,176.57,299.87,3.25,0.2167,1660.0,4.55,1.22,8,8568.0,0
0,14.02,,,,2.88,,,7,153,0.1848,2.744,2.237,14.0,185.42,166.52,234.46,3.25,0.2168,1660.0,4.55,1.24,8,17420.0,0
0,13.96,,,,38.4458,,,7,153,0.0945,2.969,2.688,9.42,209.05,131.91,29.49,3.25,0.1927,1870.0,5.12,1.69,8,13220.0,0
0,15.36,,,,,,,7,153,0.1777,2.342,1.926,3.12,21.41,132.81,168.03,2.76,0.2749,1310.0,3.59,0.938,8,12172.0,0
0,19.39,,,,,,,7,153,0.5481,1.597,0.722,18.82,13.95,312.02,30.78,2.47,0.4881,737.0,2.02,0.124,1,6576.0,0
1,15.87,,,,5.807,,,7,153,0.5782,2.136,0.901,9.54,78.82,39.1,141.77,3.37,0.3157,1140.0,3.12,0.00158,1,9184.0,0
0,15.08,,,,,,,7,153,0.0785,2.348,2.163,6.14,9.24,196.75,124.62,2.53,0.274,1310.0,3.6,1.16,8,8652.0,0
0,14.41,,,,,,,7,153,0.1239,2.756,2.415,10.63,228.57,329.51,1.65,3.1,0.2154,1670.0,4.58,1.42,8,17394.0,0
0,14.02,,,,,,,7,153,0.0399,2.676,2.57,4.84,284.09,60.31,307.39,2.78,0.2251,1600.0,4.38,1.57,8,8641.0,0
0,14.14,,,,,,,7,153,0.0203,2.941,2.881,2.36,165.82,103.97,132.47,3.0,0.1955,1840.0,5.04,1.87,8,10947.0,0
0,14.18,,,,,,,7,153,0.043,2.74,2.623,2.12,184.92,74.92,327.86,2.86,0.2173,1660.0,4.54,1.61,8,8997.0,0
0,13.9,,,,,,,7,153,0.1244,2.688,2.354,14.23,55.8,179.7,45.66,3.02,0.2236,1610.0,4.41,1.34,8,10501.0,0
0,13.43,,,,85.5481,,,7,153,0.1504,2.715,2.307,14.39,56.46,128.54,55.65,3.12,0.2203,1630.0,4.47,1.33,8,9037.0,0
0,14.23,,,,,,,7,153,0.0633,2.736,2.563,3.06,209.51,206.33,173.04,2.91,0.2178,1650.0,4.53,1.57,8,9013.0,0
0,14.51,,,,3.752,,,7,153,0.0658,2.791,2.607,4.48,53.68,233.4,258.29,2.97,0.2114,1700.0,4.66,1.59,8,10808.0,0
0,14.73,,,,,,,7,153,0.0199,2.726,2.672,2.65,220.75,330.32,50.75,2.78,0.219,1640.0,4.5,1.67,8,9007.0,0
0,14.52,,,,,,,7,153,0.2185,2.681,2.095,5.99,224.54,1.2,67.57,3.27,0.2246,1600.0,4.39,1.09,8,10925.0,0
0,14.16,,,,,,,7,153,0.1726,3.199,2.647,2.17,91.61,117.16,10.25,3.75,0.1723,2090.0,5.72,1.64,8,11163.0,0
0,12.99,,,,,,,7,153,0.0336,3.067,2.964,10.57,61.93,150.58,108.52,3.17,0.1835,1960.0,5.37,1.96,8,8674.0,0
0,13.7,,,,,,,7,153,0.1322,2.633,2.285,12.69,236.8,270.42,192.4,2.98,0.2307,1560.0,4.27,1.34,8,9154.0,0
0,14.34,,,,,,,7,153,0.1454,2.672,2.284,2.44,197.14,354.1,107.14,3.06,0.2256,1600.0,4.37,1.28,8,10497.0,0
0,13.98,,,,,,,7,153,0.2224,2.851,2.217,14.35,234.94,336.68,270.81,3.49,0.2047,1760.0,4.81,1.22,8,10693.0,0
0,14.6,,,,,,,7,153,0.0557,2.675,2.526,3.3,108.25,155.51,23.61,2.82,0.2252,1600.0,4.38,1.51,8,10961.0,0
0,14.87,,,,,,,7,153,0.0959,2.722,2.461,5.09,176.94,18.66,39.84,2.98,0.2195,1640.0,4.49,1.46,8,22196.0,0
0,14.31,,,,,,,7,153,0.1481,2.646,2.254,14.95,121.04,102.61,96.38,3.04,0.2289,1570.0,4.31,1.3,8,13876.0,0
0,13.68,,,,,,,7,153,0.0965,2.991,2.702,12.09,93.95,232.74,41.56,3.28,0.1906,1890.0,5.17,1.71,8,10002.0,0
0,14.12,,,,14.1227,,,7,153,0.2641,2.682,1.974,15.71,151.94,14.35,107.17,3.39,0.2244,1600.0,4.39,0.986,8,10098.0,0
0,14.12,,,,,,,7,153,0.0653,3.03,2.832,10.24,160.58,262.16,282.3,3.23,0.1869,1930.0,5.27,1.87,8,8611.0,0
0,14.03,,,,,,,7,153,0.0534,3.035,2.873,15.98,178.63,99.66,69.51,3.2,0.1864,1930.0,5.29,1.91,8,8639.0,0
0,14.27,,,,41.246,,,7,153,0.0939,2.666,2.415,15.65,153.6,248.41,281.17,2.92,0.2265,1590.0,4.35,1.47,8,8583.0,0
0,14.09,,,,,,,7,153,0.1004,2.917,2.624,2.19,156.67,332.09,281.41,3.21,0.1978,1820.0,4.98,1.64,8,10978.0,0
0,14.32,,,,,,,7,153,0.0829,3.05,2.797,10.45,99.29,271.68,328.49,3.3,0.185,1950.0,5.33,1.82,8,8558.0,0
0,14.72,,,,,,,7,153,0.2175,2.581,2.02,3.71,329.13,189.61,224.03,3.14,0.2377,1510.0,4.15,1.03,8,8730.0,0
0,14.46,,,,,,,7,153,0.0778,2.843,2.622,8.71,224.83,333.73,302.15,3.06,0.2056,1750.0,4.79,1.62,8,10071.0,0
0,13.47,,,,3.433,,,7,153,0.1021,3.06,2.747,9.99,78.25,310.26,312.09,3.37,0.1842,1950.0,5.35,1.77,8,13075.0,0
0,14.3,,,,,,,7,153,0.0672,2.758,2.573,4.1,77.17,309.73,205.89,2.94,0.2152,1670.0,4.58,1.58,8,8475.0,0
0,14.37,,,,138.622,,,7,153,0.1161,2.772,2.45,7.07,86.45,104.18,15.48,3.09,0.2136,1690.0,4.61,1.46,8,15525.0,0
0,12.97,,,,,,,7,153,0.0997,2.597,2.338,13.89,41.95,135.84,140.2,2.86,0.2355,1530.0,4.19,1.36,8,14541.0,0
0,13.94,,,,102.863,,,7,153,0.1021,2.763,2.48,9.1,4.93,232.66,337.1,3.04,0.2147,1680.0,4.59,1.48,8,18337.0,0
0,14.0,,,,6.002,,,7,153,0.0183,2.794,2.743,4.97,257.29,343.89,307.04,2.84,0.2111,1710.0,4.67,1.73,8,8504.0,0
0,14.78,,,,,,,7,153,0.1995,2.678,2.144,14.78,143.24,0.89,138.73,3.21,0.2249,1600.0,4.38,1.16,8,10066.0,0
0,13.65,,,,,,,7,153,0.1127,2.781,2.468,8.76,264.41,5.55,324.08,3.09,0.2125,1690.0,4.64,1.45,8,8501.0,0
0,15.68,,,,18.097,,,7,153,0.1308,1.933,1.68,23.02,162.75,244.42,74.33,2.19,0.3667,982.0,2.69,0.756,7,24280.0,0
0,13.28,,,,3.649,,,7,153,0.084,3.049,2.793,11.6,74.7,308.79,96.81,3.31,0.1851,1940.0,5.32,1.82,8,11147.0,0
0,15.89,,,,,,,7,153,0.1245,2.385,2.088,1.63,234.6,318.52,311.09,2.68,0.2675,1350.0,3.68,1.09,8,9591.0,0
0,15.2,,,,,,,7,153,0.1451,2.448,2.093,1.98,5.61,230.48,205.7,2.8,0.2573,1400.0,3.83,1.08,8,9726.0,0
0,15.09,,,,,,,7,153,0.2922,2.204,1.56,20.34,172.84,120.42,112.07,2.85,0.3012,1200.0,3.27,0.634,9,12121.0,0
0,16.33,,,,,,,7,153,0.2633,2.123,1.564,2.72,148.84,150.75,275.77,2.68,0.3187,1130.0,3.09,0.55,9,15121.0,0
0,16.27,,,,,,,7,153,0.1774,2.344,1.928,3.23,164.59,137.89,267.67,2.76,0.2747,1310.0,3.59,0.915,8,9711.0,0
0,16.02,,,,,,,7,153,0.0821,1.956,1.796,21.27,11.62,349.0,166.84,2.12,0.3602,1000.0,2.74,0.797,7,11102.0,0
0,16.18,,,,,,,7,153,0.1651,2.165,1.807,3.01,165.78,118.19,227.3,2.52,0.3094,1160.0,3.19,0.795,8,12088.0,0
0,14.78,,,,,,,7,153,0.2232,2.563,1.991,5.95,21.55,309.79,348.78,3.14,0.2402,1500.0,4.1,0.988,8,11141.0,0
0,15.38,,,,,,,7,153,0.115,2.352,2.082,6.88,357.37,285.66,297.92,2.62,0.2732,1320.0,3.61,1.08,8,16784.0,0
0,16.78,,,,,,,7,153,0.1058,2.236,2.0,2.02,192.12,57.14,139.73,2.47,0.2947,1220.0,3.34,0.987,8,10974.0,0
0,14.62,,,,,,,7,153,0.2877,2.541,1.81,6.15,70.85,269.5,19.64,3.27,0.2433,1480.0,4.05,0.815,8,16029.0,0
0,15.79,,,,,,,7,153,0.1531,2.298,1.946,6.7,191.14,129.79,332.44,2.65,0.283,1270.0,3.48,0.943,8,9767.0,0
0,16.04,,,,,,,7,153,0.168,2.392,1.99,2.33,121.16,153.71,252.88,2.79,0.2664,1350.0,3.7,0.975,8,11047.0,0
0,16.2,,,,,,,7,153,0.2474,2.299,1.73,3.21,178.78,118.54,10.12,2.87,0.2828,1270.0,3.49,0.718,8,10309.0,0
0,16.31,,,,,,,7,153,0.1522,2.402,2.036,1.66,145.06,97.24,269.36,2.77,0.2648,1360.0,3.72,1.03,8,11074.0,0
0,15.84,,,,,,,7,153,0.2052,2.177,1.731,6.99,224.36,28.37,235.65,2.62,0.3068,1170.0,3.21,0.721,8,8615.0,0
0,14.18,,,,4.846,,,7,153,0.3063,2.556,1.773,12.88,216.09,95.55,22.7,3.34,0.2412,1490.0,4.09,0.817,8,11670.0,0
0,14.16,,,,,,,7,153,0.1854,2.578,2.1,9.79,41.49,289.08,343.52,3.06,0.2382,1510.0,4.14,1.11,8,10702.0,0
0,14.2,,,,,,,7,153,0.242,2.559,1.94,10.45,52.32,206.03,72.79,3.18,0.2408,1500.0,4.09,0.932,8,10771.0,0
0,15.05,,,,,,,7,153,0.091,2.331,2.119,4.33,103.08,217.2,279.44,2.54,0.2769,1300.0,3.56,1.11,8,10249.0,0
0,16.71,,,,,,,7,153,0.1089,2.21,1.97,2.98,151.59,114.53,162.88,2.45,0.2999,1200.0,3.29,0.957,8,10972.0,0
0,14.49,,,,,,,7,153,0.2576,2.581,1.916,13.72,130.74,160.41,49.36,3.25,0.2378,1510.0,4.15,0.906,8,10683.0,0
0,16.44,,,,4.16,,,7,153,0.1139,1.784,1.581,21.08,198.62,310.45,93.35,1.99,0.4137,870.0,2.38,0.624,9,13975.0,0
0,15.37,,,,,,,7,153,0.2022,2.356,1.879,9.67,131.23,144.8,303.59,2.83,0.2726,1320.0,3.62,0.873,8,9291.0,0
0,15.4,,,,,,,7,153,0.0938,2.42,2.193,7.07,84.46,227.0,169.01,2.65,0.2617,1380.0,3.77,1.19,8,10812.0,0
0,15.82,,,,,,,7,153,0.146,2.435,2.079,2.42,97.46,175.28,200.18,2.79,0.2595,1390.0,3.8,1.06,8,11007.0,0
0,15.89,,,,,,,7,153,0.1483,2.328,1.983,3.61,147.45,128.11,340.85,2.67,0.2775,1300.0,3.55,0.97,8,10296.0,0
0,15.07,,,,5.13,,,7,153,0.1377,2.353,2.029,7.32,159.6,143.85,278.96,2.68,0.273,1320.0,3.61,1.02,8,11165.0,0
0,15.24,,,,,,,7,153,0.2177,2.329,1.822,3.49,92.01,181.14,351.8,2.84,0.2773,1300.0,3.55,0.807,8,26034.0,0
0,14.1,,,,14.152,,,7,153,0.0509,2.519,2.39,7.2,28.65,232.57,89.52,2.65,0.2466,1460.0,4.0,1.38,8,9353.0,0
0,15.98,,,,,,,7,153,0.1042,2.185,1.957,2.91,121.57,157.14,187.93,2.41,0.3052,1180.0,3.23,0.942,8,10718.0,0
0,14.63,,,,,,,7,153,0.2159,2.357,1.848,5.99,144.28,120.92,318.43,2.87,0.2725,1320.0,3.62,0.842,8,11148.0,0
0,15.23,,,,,,,7,153,0.2929,2.192,1.55,5.37,59.25,274.28,133.51,2.83,0.3037,1190.0,3.25,0.553,9,26228.0,0
0,15.22,,,,,,,7,153,0.1167,2.467,2.179,5.67,328.21,264.69,200.29,2.75,0.2544,1420.0,3.87,1.18,8,10819.0,0
0,15.56,,,,17.2,,,7,153,0.0824,1.903,1.746,23.87,141.58,174.87,351.19,2.06,0.3755,959.0,2.62,0.735,7,24328.0,0
0,16.28,,,,,,,7,153,0.1684,2.281,1.897,3.48,47.53,266.07,15.08,2.67,0.286,1260.0,3.45,0.888,8,13937.0,0
0,15.42,,,,,,,7,153,0.2211,2.385,1.857,1.77,358.32,330.32,213.19,2.91,0.2677,1340.0,3.68,0.847,8,11048.0,0
0,15.51,,,,,,,7,153,0.1035,2.453,2.199,6.01,196.55,88.08,168.8,2.71,0.2565,1400.0,3.84,1.19,8,10540.0,0
0,16.2,,,,,,,7,153,0.2651,2.341,1.72,5.77,31.5,298.97,285.2,2.96,0.2753,1310.0,3.58,0.72,8,13665.0,0
